{"type": "FeatureCollection", "features": [{"type": "Feature", "geometry": {"type": "Point", "coordinates": [38.95454095631157, 8.747635932351729]}, "properties": {"tile_id": "T0000", "weight": 0.0536, "tier": "moderate"}}, {"type": "Feature", "geometry": {"type": "Point", "coordinates": [38.954977363038054, 8.74763598448891]}, "properties": {"tile_id": "T0001", "weight": 0.0959, "tier": "moderate"}}, {"type": "Feature", "geometry": {"type": "Point", "coordinates": [38.955413769767226, 8.747636036123163]}, "properties": {"tile_id": "T0002", "weight": 0.0752, "tier": "moderate"}}, {"type": "Feature", "geometry": {"type": "Point", "coordinates": [38.955850176499055, 8.747636087254481]}, "properties": {"tile_id": "T0003", "weight": 0.032, "tier": "moderate"}}, {"type": "Feature", "geometry": {"type": "Point", "coordinates": [38.95454100896874, 8.747201762283597]}, "properties": {"tile_id": "T0004", "weight": 0.2256, "tier": "high"}}, {"type": "Feature", "geometry": {"type": "Point", "coordinates": [38.95497741518972, 8.747201814418151]}, "properties": {"tile_id": "T0005", "weight": 0.9248, "tier": "high"}}, {"type": "Feature", "geometry": {"type": "Point", "coordinates": [38.95541382141338, 8.747201866049803]}, "properties": {"tile_id": "T0006", "weight": 0.0691, "tier": "moderate"}}, {"type": "Feature", "geometry": {"type": "Point", "coordinates": [38.95585022763971, 8.747201917178543]}, "properties": {"tile_id": "T0007", "weight": 0.0372, "tier": "moderate"}}, {"type": "Feature", "geometry": {"type": "Point", "coordinates": [38.9545410616232, 8.746767592205531]}, "properties": {"tile_id": "T0008", "weight": 0.0389, "tier": "moderate"}}, {"type": "Feature", "geometry": {"type": "Point", "coordinates": [38.95497746733869, 8.746767644337458]}, "properties": {"tile_id": "T0009", "weight": 0.0544, "tier": "moderate"}}, {"type": "Feature", "geometry": {"type": "Point", "coordinates": [38.95541387305687, 8.746767695966504]}, "properties": {"tile_id": "T0010", "weight": 0.2978, "tier": "high"}}, {"type": "Feature", "geometry": {"type": "Point", "coordinates": [38.95585027877772, 8.746767747092672]}, "properties": {"tile_id": "T0011", "weight": 0.0553, "tier": "moderate"}}, {"type": "Feature", "geometry": {"type": "Point", "coordinates": [38.954541114274946, 8.74633342211753]}, "properties": {"tile_id": "T0012", "weight": 0.0276, "tier": "moderate"}}, {"type": "Feature", "geometry": {"type": "Point", "coordinates": [38.95497751948498, 8.74633347424683]}, "properties": {"tile_id": "T0013", "weight": 0.032, "tier": "moderate"}}, {"type": "Feature", "geometry": {"type": "Point", "coordinates": [38.95541392469771, 8.746333525873279]}, "properties": {"tile_id": "T0014", "weight": 0.0804, "tier": "moderate"}}, {"type": "Feature", "geometry": {"type": "Point", "coordinates": [38.95585032991309, 8.746333576996868]}, "properties": {"tile_id": "T0015", "weight": 0.0562, "tier": "moderate"}}]}