{"type": "FeatureCollection", "features": [{"type": "Feature", "geometry": {"type": "Polygon", "coordinates": [[[38.95454095631157, 8.747635932351729], [38.954977363038054, 8.74763598448891], [38.9549773108837, 8.748070154549737], [38.95454090365168, 8.74807010240993], [38.95454095631157, 8.747635932351729]]]}, "properties": {"tile_id": "T0000", "risk": 0.384, "tier": "moderate", "dominant_disease": "septoria", "dominant_risk_driver": "septoria", "model_prob": 0.308, "uncertainty": 0.0591, "attention": 0.0536, "needs_expert_review": false, "recommendation": "Intensify monitoring: re-flight within 72 h and scout flagged tiles; watch the 7-day weather forecast for infection windows.", "disease_note": "Prioritise lower-canopy lesions; protect the flag leaf at T0/T1 timing."}}, {"type": "Feature", "geometry": {"type": "Polygon", "coordinates": [[[38.954977363038054, 8.74763598448891], [38.955413769767226, 8.747636036123163], [38.95541371811841, 8.74807020618659], [38.9549773108837, 8.748070154549737], [38.954977363038054, 8.74763598448891]]]}, "properties": {"tile_id": "T0001", "risk": 0.429, "tier": "moderate", "dominant_disease": "septoria", "dominant_risk_driver": "septoria", "model_prob": 0.397, "uncertainty": 0.0901, "attention": 0.0959, "needs_expert_review": true, "recommendation": "Intensify monitoring: re-flight within 72 h and scout flagged tiles; watch the 7-day weather forecast for infection windows.", "disease_note": "Prioritise lower-canopy lesions; protect the flag leaf at T0/T1 timing."}}, {"type": "Feature", "geometry": {"type": "Polygon", "coordinates": [[[38.955413769767226, 8.747636036123163], [38.955850176499055, 8.747636087254481], [38.955850125355774, 8.748070257320487], [38.95541371811841, 8.74807020618659], [38.955413769767226, 8.747636036123163]]]}, "properties": {"tile_id": "T0002", "risk": 0.405, "tier": "moderate", "dominant_disease": "septoria", "dominant_risk_driver": "septoria", "model_prob": 0.349, "uncertainty": 0.0684, "attention": 0.0752, "needs_expert_review": false, "recommendation": "Intensify monitoring: re-flight within 72 h and scout flagged tiles; watch the 7-day weather forecast for infection windows.", "disease_note": "Prioritise lower-canopy lesions; protect the flag leaf at T0/T1 timing."}}, {"type": "Feature", "geometry": {"type": "Polygon", "coordinates": [[[38.955850176499055, 8.747636087254481], [38.95628658323353, 8.747636137882871], [38.95628653259578, 8.748070307951426], [38.955850125355774, 8.748070257320487], [38.955850176499055, 8.747636087254481]]]}, "properties": {"tile_id": "T0003", "risk": 0.359, "tier": "moderate", "dominant_disease": "septoria", "dominant_risk_driver": "septoria", "model_prob": 0.259, "uncertainty": 0.0552, "attention": 0.032, "needs_expert_review": false, "recommendation": "Intensify monitoring: re-flight within 72 h and scout flagged tiles; watch the 7-day weather forecast for infection windows.", "disease_note": "Prioritise lower-canopy lesions; protect the flag leaf at T0/T1 timing."}}, {"type": "Feature", "geometry": {"type": "Polygon", "coordinates": [[[38.95454100896874, 8.747201762283597], [38.95497741518972, 8.747201814418151], [38.954977363038054, 8.74763598448891], [38.95454095631157, 8.747635932351729], [38.95454100896874, 8.747201762283597]]]}, "properties": {"tile_id": "T0004", "risk": 0.47, "tier": "high", "dominant_disease": "stripe_rust", "dominant_risk_driver": "septoria", "model_prob": 0.512, "uncertainty": 0.1013, "attention": 0.2256, "needs_expert_review": true, "recommendation": "Confirmatory scouting within 48 h; prepare the spray plan; re-fly the block in 5-7 days.", "disease_note": "Cool-season favourite: prioritise upper-canopy checking after cool, wet spells."}}, {"type": "Feature", "geometry": {"type": "Polygon", "coordinates": [[[38.95497741518972, 8.747201814418151], [38.95541382141338, 8.747201866049803], [38.955413769767226, 8.747636036123163], [38.954977363038054, 8.74763598448891], [38.95497741518972, 8.747201814418151]]]}, "properties": {"tile_id": "T0005", "risk": 0.599, "tier": "high", "dominant_disease": "stripe_rust", "dominant_risk_driver": "septoria", "model_prob": 0.823, "uncertainty": 0.0945, "attention": 0.9248, "needs_expert_review": true, "recommendation": "Confirmatory scouting within 48 h; prepare the spray plan; re-fly the block in 5-7 days.", "disease_note": "Cool-season favourite: prioritise upper-canopy checking after cool, wet spells."}}, {"type": "Feature", "geometry": {"type": "Polygon", "coordinates": [[[38.95541382141338, 8.747201866049803], [38.95585022763971, 8.747201917178543], [38.955850176499055, 8.747636087254481], [38.955413769767226, 8.747636036123163], [38.95541382141338, 8.747201866049803]]]}, "properties": {"tile_id": "T0006", "risk": 0.397, "tier": "moderate", "dominant_disease": "septoria", "dominant_risk_driver": "septoria", "model_prob": 0.334, "uncertainty": 0.0694, "attention": 0.0691, "needs_expert_review": false, "recommendation": "Intensify monitoring: re-flight within 72 h and scout flagged tiles; watch the 7-day weather forecast for infection windows.", "disease_note": "Prioritise lower-canopy lesions; protect the flag leaf at T0/T1 timing."}}, {"type": "Feature", "geometry": {"type": "Polygon", "coordinates": [[[38.95585022763971, 8.747201917178543], [38.956286633868665, 8.747201967804381], [38.95628658323353, 8.747636137882871], [38.955850176499055, 8.747636087254481], [38.95585022763971, 8.747201917178543]]]}, "properties": {"tile_id": "T0007", "risk": 0.372, "tier": "moderate", "dominant_disease": "septoria", "dominant_risk_driver": "septoria", "model_prob": 0.284, "uncertainty": 0.0533, "attention": 0.0372, "needs_expert_review": false, "recommendation": "Intensify monitoring: re-flight within 72 h and scout flagged tiles; watch the 7-day weather forecast for infection windows.", "disease_note": "Prioritise lower-canopy lesions; protect the flag leaf at T0/T1 timing."}}, {"type": "Feature", "geometry": {"type": "Polygon", "coordinates": [[[38.9545410616232, 8.746767592205531], [38.95497746733869, 8.746767644337458], [38.95497741518972, 8.747201814418151], [38.95454100896874, 8.747201762283597], [38.9545410616232, 8.746767592205531]]]}, "properties": {"tile_id": "T0008", "risk": 0.372, "tier": "moderate", "dominant_disease": "septoria", "dominant_risk_driver": "septoria", "model_prob": 0.283, "uncertainty": 0.048, "attention": 0.0389, "needs_expert_review": false, "recommendation": "Intensify monitoring: re-flight within 72 h and scout flagged tiles; watch the 7-day weather forecast for infection windows.", "disease_note": "Prioritise lower-canopy lesions; protect the flag leaf at T0/T1 timing."}}, {"type": "Feature", "geometry": {"type": "Polygon", "coordinates": [[[38.95497746733869, 8.746767644337458], [38.95541387305687, 8.746767695966504], [38.95541382141338, 8.747201866049803], [38.95497741518972, 8.747201814418151], [38.95497746733869, 8.746767644337458]]]}, "properties": {"tile_id": "T0009", "risk": 0.381, "tier": "moderate", "dominant_disease": "stripe_rust", "dominant_risk_driver": "septoria", "model_prob": 0.319, "uncertainty": 0.0586, "attention": 0.0544, "needs_expert_review": false, "recommendation": "Intensify monitoring: re-flight within 72 h and scout flagged tiles; watch the 7-day weather forecast for infection windows.", "disease_note": "Cool-season favourite: prioritise upper-canopy checking after cool, wet spells."}}, {"type": "Feature", "geometry": {"type": "Polygon", "coordinates": [[[38.95541387305687, 8.746767695966504], [38.95585027877772, 8.746767747092672], [38.95585022763971, 8.747201917178543], [38.95541382141338, 8.747201866049803], [38.95541387305687, 8.746767695966504]]]}, "properties": {"tile_id": "T0010", "risk": 0.497, "tier": "high", "dominant_disease": "stripe_rust", "dominant_risk_driver": "septoria", "model_prob": 0.584, "uncertainty": 0.0981, "attention": 0.2978, "needs_expert_review": true, "recommendation": "Confirmatory scouting within 48 h; prepare the spray plan; re-fly the block in 5-7 days.", "disease_note": "Cool-season favourite: prioritise upper-canopy checking after cool, wet spells."}}, {"type": "Feature", "geometry": {"type": "Polygon", "coordinates": [[[38.95585027877772, 8.746767747092672], [38.956286684501194, 8.746767797715961], [38.956286633868665, 8.747201967804381], [38.95585022763971, 8.747201917178543], [38.95585027877772, 8.746767747092672]]]}, "properties": {"tile_id": "T0011", "risk": 0.397, "tier": "moderate", "dominant_disease": "septoria", "dominant_risk_driver": "septoria", "model_prob": 0.334, "uncertainty": 0.0724, "attention": 0.0553, "needs_expert_review": false, "recommendation": "Intensify monitoring: re-flight within 72 h and scout flagged tiles; watch the 7-day weather forecast for infection windows.", "disease_note": "Prioritise lower-canopy lesions; protect the flag leaf at T0/T1 timing."}}, {"type": "Feature", "geometry": {"type": "Polygon", "coordinates": [[[38.954541114274946, 8.74633342211753], [38.95497751948498, 8.74633347424683], [38.95497746733869, 8.746767644337458], [38.9545410616232, 8.746767592205531], [38.954541114274946, 8.74633342211753]]]}, "properties": {"tile_id": "T0012", "risk": 0.359, "tier": "moderate", "dominant_disease": "septoria", "dominant_risk_driver": "septoria", "model_prob": 0.258, "uncertainty": 0.047, "attention": 0.0276, "needs_expert_review": false, "recommendation": "Intensify monitoring: re-flight within 72 h and scout flagged tiles; watch the 7-day weather forecast for infection windows.", "disease_note": "Prioritise lower-canopy lesions; protect the flag leaf at T0/T1 timing."}}, {"type": "Feature", "geometry": {"type": "Polygon", "coordinates": [[[38.95497751948498, 8.74633347424683], [38.95541392469771, 8.746333525873279], [38.95541387305687, 8.746767695966504], [38.95497746733869, 8.746767644337458], [38.95497751948498, 8.74633347424683]]]}, "properties": {"tile_id": "T0013", "risk": 0.376, "tier": "moderate", "dominant_disease": "septoria", "dominant_risk_driver": "septoria", "model_prob": 0.292, "uncertainty": 0.0502, "attention": 0.032, "needs_expert_review": false, "recommendation": "Intensify monitoring: re-flight within 72 h and scout flagged tiles; watch the 7-day weather forecast for infection windows.", "disease_note": "Prioritise lower-canopy lesions; protect the flag leaf at T0/T1 timing."}}, {"type": "Feature", "geometry": {"type": "Polygon", "coordinates": [[[38.95541392469771, 8.746333525873279], [38.95585032991309, 8.746333576996868], [38.95585027877772, 8.746767747092672], [38.95541387305687, 8.746767695966504], [38.95541392469771, 8.746333525873279]]]}, "properties": {"tile_id": "T0014", "risk": 0.413, "tier": "moderate", "dominant_disease": "septoria", "dominant_risk_driver": "septoria", "model_prob": 0.365, "uncertainty": 0.075, "attention": 0.0804, "needs_expert_review": true, "recommendation": "Intensify monitoring: re-flight within 72 h and scout flagged tiles; watch the 7-day weather forecast for infection windows.", "disease_note": "Prioritise lower-canopy lesions; protect the flag leaf at T0/T1 timing."}}, {"type": "Feature", "geometry": {"type": "Polygon", "coordinates": [[[38.95585032991309, 8.746333576996868], [38.956286735131116, 8.746333627617608], [38.956286684501194, 8.746767797715961], [38.95585027877772, 8.746767747092672], [38.95585032991309, 8.746333576996868]]]}, "properties": {"tile_id": "T0015", "risk": 0.383, "tier": "moderate", "dominant_disease": "septoria", "dominant_risk_driver": "septoria", "model_prob": 0.305, "uncertainty": 0.057, "attention": 0.0562, "needs_expert_review": false, "recommendation": "Intensify monitoring: re-flight within 72 h and scout flagged tiles; watch the 7-day weather forecast for infection windows.", "disease_note": "Prioritise lower-canopy lesions; protect the flag leaf at T0/T1 timing."}}]}